satname,norad_id,inclination_deg,eccentricity,mean_motion_rev_per_day,perigee_km,apogee_km,l1,l2
STARLINK-1513,45786,53.0547,0.0001396,15.06390692,546.2733031234002,548.2068684057467,1 45786U 20038BJ  26024.32902009  .00005403  00000+0  38141-3 0  9993,2 45786  53.0547  35.7618 0001396  87.5516 272.5633 15.06390692310077
STARLINK-1522,46027,53.0566,0.000148,15.06410305,546.1550278652476,548.2049216897822,1 46027U 20055A   26024.11060278  .00000658  00000+0  63073-4 0  9991,2 46027  53.0566 326.7409 0001480 100.8629 259.2527 15.06410305302165
STARLINK-1523,46028,53.0553,0.0001056,15.06402762,546.4717769052104,547.9344087328136,1 46028U 20055B   26024.12535709  .00000366  00000+0  43434-4 0  9994,2 46028  53.0553 326.6763 0001056  85.1954 274.9156 15.06402762302181
STARLINK-1526,46029,53.0554,0.0001479,15.06414238,546.1436682648327,548.1921734604239,1 46029U 20055C   26023.85259235 -.00001463  00000+0 -79272-4 0  9991,2 46029  53.0554 327.8986 0001479  63.5900 296.5241 15.06414238302134
STARLINK-1555,46032,53.0539,0.0001624,15.06367901,546.1852459143092,548.4346310799328,1 46032U 20055F   26024.10325869  .00009478  00000+0  65489-3 0  9997,2 46032  53.0539 326.7739 0001624  96.8682 263.2492 15.06367901302170
STARLINK-1556,46033,53.0546,0.0001447,15.06414791,546.1641346476863,548.1683174012987,1 46033U 20055G   26024.15116646  .00004291  00000+0  30670-3 0  9996,2 46033  53.0546 326.5606 0001447  86.3105 273.8049 15.06414791302150
STARLINK-1557,46034,53.0521,0.0001594,15.06394003,546.126034450619,548.3338414304344,1 46034U 20055H   26023.82312844  .00012390  00000+0  84932-3 0  9997,2 46034  53.0521 328.0292 0001594  75.6741 284.4425 15.06394003302106
STARLINK-1558,46035,53.0538,0.0001514,15.06416322,546.1130436127378,548.2100240087757,1 46035U 20055J   26024.09586512  .00006709  00000+0  46868-3 0  9996,2 46035  53.0538 326.8097 0001514  99.6960 260.4200 15.06416322302176
STARLINK-1560,46036,53.0537,0.0001285,15.06399233,546.3240010920408,548.1038162755731,1 46036U 20055K   26024.14747687 -.00004145  00000+0 -25952-3 0  9990,2 46036  53.0537 326.5781 0001285  92.5718 267.5418 15.06399233302182
STARLINK-1567,46038,53.0535,0.0001322,15.06421542,546.2300132464716,548.061057948883,1 46038U 20055M   26024.15852411  .00003253  00000+0  23707-3 0  9998,2 46038  53.0535 326.5266 0001322  70.3367 289.7765 15.06421542302175
STARLINK-1569,46039,53.0557,0.0001259,15.06360379,546.4610765862981,548.2049099306005,1 46039U 20055N   26024.09957279  .00025523  00000+0  17280-2 0  9992,2 46039  53.0557 326.7911 0001259  86.2330 273.8803 15.06360379302160
STARLINK-1582,46043,53.0557,0.0001496,15.06421182,546.1106164873681,548.1826613521334,1 46043U 20055S   26024.10692278  .00006641  00000+0  46403-3 0  9994,2 46043  53.0557 326.7566 0001496  30.9864 329.1213 15.06421182302162
STARLINK-1591,46045,53.0564,0.0001658,15.06404495,546.0495609381696,548.346001951696,1 46045U 20055U   26024.13272152  .00003104  00000+0  22719-3 0  9999,2 46045  53.0564 326.6468 0001658 110.3272 249.7896 15.06404495302159
STARLINK-1524,46047,53.0542,0.0001618,15.0641364,546.049238985499,548.2902682509712,1 46047U 20055W   26024.08572601  .00001517  00000+0  12067-3 0  9998,2 46047  53.0542 316.8516 0001618 100.2333 259.8838 15.06413640302301
STARLINK-1527,46048,53.0529,0.000188,15.06413697,545.8676212872488,548.4715365609245,1 46048U 20055X   26024.08205285  .00003201  00000+0  23359-3 0  9998,2 46048  53.0529 316.8681 0001880  72.5336 287.5859 15.06413697302285
STARLINK-1540,46051,53.0559,0.0002218,15.06413866,545.6330280870025,548.7050938556495,1 46051U 20055AA  26023.78348852  .00007475  00000+0  51997-3 0  9992,2 46051  53.0559 318.2119 0002218  84.9659 275.1583 15.06413866302279
STARLINK-1541,46052,53.0555,0.00015,15.06407199,546.1506951538722,548.2282931021118,1 46052U 20055AB  26024.10047130 -.00004406  00000+0 -27698-3 0  9999,2 46052  53.0555 316.7865 0001500  88.9132 271.2029 15.06407199302285
STARLINK-1543,46053,53.0528,0.0001019,15.06397923,546.512229984729,547.9236173181698,1 46053U 20055AC  26024.50224348  .00002729  00000+0  20201-3 0  9999,2 46053  53.0528 314.9840 0001019 102.6152 257.4951 15.06397923302373
STARLINK-1548,46054,53.0536,9.53e-05,15.06406875,546.5305034240728,547.8504708431201,1 46054U 20055AD  26024.50960973  .00015428  00000+0  10522-2 0  9995,2 46054  53.0536 314.9501 0000953  97.1840 262.9257 15.06406875302372
STARLINK-1554,46055,53.0547,0.0001593,15.06404161,546.0955991081746,548.3020110956795,1 46055U 20055AE  26024.49488426  .00004332  00000+0  30953-3 0  9995,2 46055  53.0547 315.0189 0001593  86.7675 273.3496 15.06404161302377
STARLINK-1564,46058,53.0565,0.0001628,15.06439221,545.9639266541835,548.2187810061914,1 46058U 20055AH  26024.50598169  .00022763  00000+0  15405-2 0  9998,2 46058  53.0565 315.4296 0001628  91.2272 268.8904 15.06439221302363
STARLINK-1570,46059,53.0566,0.0001433,15.06396776,546.2290351872434,548.2138429158749,1 46059U 20055AJ  26024.07099520  .00001470  00000+0  11760-3 0  9991,2 46059  53.0566 316.9201 0001433  94.1928 265.9225 15.06396776302261
STARLINK-1572,46060,53.0536,0.0002356,15.06436535,545.4679999487607,548.7311714279367,1 46060U 20055AK  26024.39903905  .00024915  00000+0  16839-2 0  9999,2 46060  53.0536 315.4456 0002356  81.4627 278.6629 15.06436535302320
STARLINK-1573,46061,53.0545,0.0001565,15.06453638,545.9633787487037,548.1309613939347,1 46061U 20055AL  26023.53284318  .00021387  00000+0  14482-2 0  9997,2 46061  53.0545 319.3722 0001565  79.5835 280.5330 15.06453638302223
STARLINK-1577,46063,53.0533,0.0001374,15.06417462,546.2065044017581,548.1095754787339,1 46063U 20055AN  26023.82401432 -.00007406  00000+0 -47855-3 0  9998,2 46063  53.0533 318.0263 0001374  91.8289 268.2858 15.06417462302263
STARLINK-1583,46064,53.0538,0.0001494,15.06422643,546.1075245670354,548.1767979804235,1 46064U 20055AP  26023.19374450  .00014722  00000+0  10045-2 0  9995,2 46064  53.0538 320.8571 0001494  73.9494 286.1659 15.06422643302179
STARLINK-1525,46066,53.0559,0.0001846,15.06379603,545.9956416269697,548.5525033949416,1 46066U 20055AR  26024.05441537  .00000492  00000+0  51986-4 0  9994,2 46066  53.0559 296.9911 0001846  86.1983 273.9217 15.06379603302570
STARLINK-1536,46070,53.0536,0.0001529,15.06324385,546.3843954867598,548.5022379476113,1 46070U 20055AV  26024.23134251  .00017492  00000+0  11927-2 0  9998,2 46070  53.0536 296.2003 0001529  75.3043 284.8115 15.06324385302610
